[{"OBJECT_NAME":"STARLINK-1790","OBJECT_ID":"2020-073X","EPOCH":"2026-03-10T00:00:02.999808","MEAN_MOTION":15.73247405,"ECCENTRICITY":0.00030153,"INCLINATION":53.0418,"RA_OF_ASC_NODE":197.0184,"ARG_OF_PERICENTER":160.3471,"MEAN_ANOMALY":75.7637,"EPHEMERIS_TYPE":0,"CLASSIFICATION_TYPE":"U","NORAD_CAT_ID":46691,"ELEMENT_SET_NO":999,"REV_AT_EPOCH":596,"BSTAR":0.00070221254,"MEAN_MOTION_DOT":0.00099338,"MEAN_MOTION_DDOT":0},{"OBJECT_NAME":"STARLINK-11590 [DTC]","OBJECT_ID":"2025-039J","EPOCH":"2026-03-09T12:26:47.680224","MEAN_MOTION":15.70810558,"ECCENTRICITY":0.00024476,"INCLINATION":43.0006,"RA_OF_ASC_NODE":238.3144,"ARG_OF_PERICENTER":298.2895,"MEAN_ANOMALY":61.7726,"EPHEMERIS_TYPE":0,"CLASSIFICATION_TYPE":"U","NORAD_CAT_ID":63112,"ELEMENT_SET_NO":999,"REV_AT_EPOCH":5958,"BSTAR":0.0026458938,"MEAN_MOTION_DOT":0.00353463,"MEAN_MOTION_DDOT":0}]
